{"type": "FeatureCollection", "features": [ {"type": "Feature", "properties": {"norad_id": 44622, "name": "GAOFEN-10R", "group": "resource", "lat": -61.36559418481064, "lon": -60.89637784404965, "alt_km": 631.7282783479932, "timestamp": "2025-12-02T15:49:06.840688+00:00", "meta": {"OBJECT_NAME": "GAOFEN-10R", "OBJECT_ID": "2019-066A", "EPOCH": "2025-12-02T08:00:05.981184", "MEAN_MOTION": 14.82731579, "ECCENTRICITY": 0.00083005, "INCLINATION": 98.0259, "RA_OF_ASC_NODE": 283.8004, "ARG_OF_PERICENTER": 70.1977, "MEAN_ANOMALY": 290.013, "EPHEMERIS_TYPE": 0, "CLASSIFICATION_TYPE": "U", "NORAD_CAT_ID": 44622, "ELEMENT_SET_NO": 999, "REV_AT_EPOCH": 33320, "BSTAR": 0.0003000028, "MEAN_MOTION_DOT": 2.369e-05, "MEAN_MOTION_DDOT": 0}, "tle": {"line1": "1 44622U 19066A   25336.33340256  .00002369  00000+0  30000-3 0  9990", "line2": "2 44622  98.0259 283.8004 0008300  70.1977 290.0130 14.82731579333203"}}, "geometry": {"type": "Point", "coordinates": [-60.89637784404965, -61.36559418481064]}}, {"type": "Feature", "properties": {"norad_id": 44804, "name": "CARTOSAT-3", "group": "resource", "lat": -37.94126425365339, "lon": -149.4947226360255, "alt_km": 516.494400801249, "timestamp": "2025-12-02T15:49:06.840699+00:00", "meta": {"OBJECT_NAME": "CARTOSAT-3", "OBJECT_ID": "2019-081A", "EPOCH": "2025-11-28T19:10:32.696256", "MEAN_MOTION": 15.19179285, "ECCENTRICITY": 0.00136919, "INCLINATION": 97.4604, "RA_OF_ASC_NODE": 32.557, "ARG_OF_PERICENTER": 130.907, "MEAN_ANOMALY": 229.3352, "EPHEMERIS_TYPE": 0, "CLASSIFICATION_TYPE": "U", "NORAD_CAT_ID": 44804, "ELEMENT_SET_NO": 999, "REV_AT_EPOCH": 33304, "BSTAR": 0.00011293309, "MEAN_MOTION_DOT": 2.312e-05, "MEAN_MOTION_DDOT": 0}, "tle": {"line1": "1 44804U 19081A   25332.79898954  .00002312  00000+0  11293-3 0  9999", "line2": "2 44804  97.4604  32.5570 0013691 130.9070 229.3352 15.19179285333041"}}, "geometry": {"type": "Point", "coordinates": [-149.4947226360255, -37.94126425365339]}}, {"type": "Feature", "properties": {"norad_id": 44819, "name": "GAOFEN-12 01", "group": "resource", "lat": -76.0641844212733, "lon": 16.801113600360065, "alt_km": 633.7928346629751, "timestamp": "2025-12-02T15:49:06.840709+00:00", "meta": {"OBJECT_NAME": "GAOFEN-12 01", "OBJECT_ID": "2019-082A", "EPOCH": "2025-12-02T06:26:26.773152", "MEAN_MOTION": 14.80637424, "ECCENTRICITY": 0.00013133, "INCLINATION": 97.8129, "RA_OF_ASC_NODE": 342.8242, "ARG_OF_PERICENTER": 305.175, "MEAN_ANOMALY": 54.9339, "EPHEMERIS_TYPE": 0, "CLASSIFICATION_TYPE": "U", "NORAD_CAT_ID": 44819, "ELEMENT_SET_NO": 999, "REV_AT_EPOCH": 32495, "BSTAR": 0.0001016138, "MEAN_MOTION_DOT": 7.29e-06, "MEAN_MOTION_DDOT": 0}, "tle": {"line1": "1 44819U 19082A   25336.26836543  .00000729  00000+0  10161-3 0  9991", "line2": "2 44819  97.8129 342.8242 0001313 305.1750  54.9339 14.80637424324953"}}, "geometry": {"type": "Point", "coordinates": [16.801113600360065, -76.0641844212733]}}, {"type": "Feature", "properties": {"norad_id": 44873, "name": "CSG-1", "group": "resource", "lat": -21.991516309024405, "lon": 161.34140555349498, "alt_km": 628.1031526295737, "timestamp": "2025-12-02T15:49:06.840718+00:00", "meta": {"OBJECT_NAME": "CSG-1", "OBJECT_ID": "2019-092A", "EPOCH": "2025-12-02T07:49:02.614944", "MEAN_MOTION": 14.82172534, "ECCENTRICITY": 0.00013783, "INCLINATION": 97.8806, "RA_OF_ASC_NODE": 157.8065, "ARG_OF_PERICENTER": 83.6121, "MEAN_ANOMALY": 276.5249, "EPHEMERIS_TYPE": 0, "CLASSIFICATION_TYPE": "U", "NORAD_CAT_ID": 44873, "ELEMENT_SET_NO": 999, "REV_AT_EPOCH": 32231, "BSTAR": 0.00011897966, "MEAN_MOTION_DOT": 8.96e-06, "MEAN_MOTION_DDOT": 0}, "tle": {"line1": "1 44873U 19092A   25336.32572471  .00000896  00000+0  11898-3 0  9999", "line2": "2 44873  97.8806 157.8065 0001378  83.6121 276.5249 14.82172534322311"}}, "geometry": {"type": "Point", "coordinates": [161.34140555349498, -21.991516309024405]}}, {"type": "Feature", "properties": {"norad_id": 46277, "name": "NEMO-HD", "group": "resource", "lat": -14.997405061355611, "lon": -146.05962056969335, "alt_km": 451.9028860651297, "timestamp": "2025-12-02T15:49:06.840729+00:00", "meta": {"OBJECT_NAME": "NEMO-HD", "OBJECT_ID": "2020-061F", "EPOCH": "2025-12-02T07:10:38.334720", "MEAN_MOTION": 15.39994573, "ECCENTRICITY": 0.00023738, "INCLINATION": 97.2235, "RA_OF_ASC_NODE": 35.5322, "ARG_OF_PERICENTER": 69.9134, "MEAN_ANOMALY": 290.2368, "EPHEMERIS_TYPE": 0, "CLASSIFICATION_TYPE": "U", "NORAD_CAT_ID": 46277, "ELEMENT_SET_NO": 999, "REV_AT_EPOCH": 29163, "BSTAR": 0.00032008808, "MEAN_MOTION_DOT": 0.00012694, "MEAN_MOTION_DDOT": 0}, "tle": {"line1": "1 46277U 20061F   25336.29905480  .00012694  00000+0  32009-3 0  9999", "line2": "2 46277  97.2235  35.5322 0002373  69.9134 290.2368 15.39994573291639"}}, "geometry": {"type": "Point", "coordinates": [-146.05962056969335, -14.997405061355611]}}, {"type": "Feature", "properties": {"norad_id": 46984, "name": "SENTINEL-6A", "group": "resource", "lat": 51.07346124826378, "lon": -143.348754970747, "alt_km": 1337.241598425162, "timestamp": "2025-12-02T15:49:06.840738+00:00", "meta": {"OBJECT_NAME": "SENTINEL-6A", "OBJECT_ID": "2020-086A", "EPOCH": "2025-12-02T00:31:27.283584", "MEAN_MOTION": 12.8092996, "ECCENTRICITY": 0.00077311, "INCLINATION": 66.0388, "RA_OF_ASC_NODE": 184.5694, "ARG_OF_PERICENTER": 269.1438, "MEAN_ANOMALY": 90.8692, "EPHEMERIS_TYPE": 0, "CLASSIFICATION_TYPE": "U", "NORAD_CAT_ID": 46984, "ELEMENT_SET_NO": 999, "REV_AT_EPOCH": 23507, "BSTAR": 0.00011630553, "MEAN_MOTION_DOT": -3.4e-07, "MEAN_MOTION_DDOT": 0}, "tle": {"line1": "1 46984U 20086A   25336.02184356 -.00000034  00000+0  11631-3 0  9997", "line2": "2 46984  66.0388 184.5694 0007731 269.1438  90.8692 12.80929960235079"}}, "geometry": {"type": "Point", "coordinates": [-143.348754970747, 51.07346124826378]}}, {"type": "Feature", "properties": {"norad_id": 48079, "name": "GAOFEN-12 02", "group": "resource", "lat": -66.59584873048394, "lon": -10.362375536965441, "alt_km": 636.733634514294, "timestamp": "2025-12-02T15:49:06.840749+00:00", "meta": {"OBJECT_NAME": "GAOFEN-12 02", "OBJECT_ID": "2021-026A", "EPOCH": "2025-12-02T06:23:37.501728", "MEAN_MOTION": 14.80654523, "ECCENTRICITY": 0.0003221, "INCLINATION": 97.9848, "RA_OF_ASC_NODE": 330.3237, "ARG_OF_PERICENTER": 122.07, "MEAN_ANOMALY": 238.0825, "EPHEMERIS_TYPE": 0, "CLASSIFICATION_TYPE": "U", "NORAD_CAT_ID": 48079, "ELEMENT_SET_NO": 999, "REV_AT_EPOCH": 25262, "BSTAR": 0.00010140439, "MEAN_MOTION_DOT": 7.26e-06, "MEAN_MOTION_DDOT": 0}, "tle": {"line1": "1 48079U 21026A   25336.26640627  .00000726  00000+0  10140-3 0  9994", "line2": "2 48079  97.9848 330.3237 0003221 122.0700 238.0825 14.80654523252629"}}, "geometry": {"type": "Point", "coordinates": [-10.362375536965441, -66.59584873048394]}}, {"type": "Feature", "properties": {"norad_id": 48268, "name": "PLEIADES NEO 3", "group": "resource", "lat": -37.0126892216252, "lon": 55.24956235176014, "alt_km": 631.0067153760019, "timestamp": "2025-12-02T15:49:06.840761+00:00", "meta": {"OBJECT_NAME": "PLEIADES NEO 3", "OBJECT_ID": "2021-034A", "EPOCH": "2025-12-02T07:52:59.873664", "MEAN_MOTION": 14.81676863, "ECCENTRICITY": 0.00011947, "INCLINATION": 97.8947, "RA_OF_ASC_NODE": 48.9189, "ARG_OF_PERICENTER": 97.6045, "MEAN_ANOMALY": 262.5303, "EPHEMERIS_TYPE": 0, "CLASSIFICATION_TYPE": "U", "NORAD_CAT_ID": 48268, "ELEMENT_SET_NO": 999, "REV_AT_EPOCH": 24850, "BSTAR": -1.065966e-06, "MEAN_MOTION_DOT": -6e-07, "MEAN_MOTION_DDOT": 0}, "tle": {"line1": "1 48268U 21034A   25336.32847076 -.00000060  00000+0 -10660-5 0  9999", "line2": "2 48268  97.8947  48.9189 0001194  97.6045 262.5303 14.81676863248509"}}, "geometry": {"type": "Point", "coordinates": [55.24956235176014, -37.0126892216252]}}, {"type": "Feature", "properties": {"norad_id": 49070, "name": "PLEIADES NEO 4", "group": "resource", "lat": 36.75568435443822, "lon": -124.81063792132865, "alt_km": 620.8513072599799, "timestamp": "2025-12-02T15:49:06.840773+00:00", "meta": {"OBJECT_NAME": "PLEIADES NEO 4", "OBJECT_ID": "2021-073E", "EPOCH": "2025-12-02T07:04:21.665280", "MEAN_MOTION": 14.81673184, "ECCENTRICITY": 0.00013144, "INCLINATION": 97.8949, "RA_OF_ASC_NODE": 48.8813, "ARG_OF_PERICENTER": 96.2208, "MEAN_ANOMALY": 263.9155, "EPHEMERIS_TYPE": 0, "CLASSIFICATION_TYPE": "U", "NORAD_CAT_ID": 49070, "ELEMENT_SET_NO": 999, "REV_AT_EPOCH": 23221, "BSTAR": -5.11039e-07, "MEAN_MOTION_DOT": -5.6e-07, "MEAN_MOTION_DDOT": 0}, "tle": {"line1": "1 49070U 21073E   25336.29469520 -.00000056  00000+0 -51104-6 0  9998", "line2": "2 49070  97.8949  48.8813 0001314  96.2208 263.9155 14.81673184232210"}}, "geometry": {"type": "Point", "coordinates": [-124.81063792132865, 36.75568435443822]}}, {"type": "Feature", "properties": {"norad_id": 49260, "name": "LANDSAT 9", "group": "resource", "lat": -30.693427600757225, "lon": 49.832169523009796, "alt_km": 708.9114244982202, "timestamp": "2025-12-02T15:49:06.840783+00:00", "meta": {"OBJECT_NAME": "LANDSAT 9", "OBJECT_ID": "2021-088A", "EPOCH": "2025-12-02T04:25:27.421824", "MEAN_MOTION": 14.57112183, "ECCENTRICITY": 0.00010875, "INCLINATION": 98.2105, "RA_OF_ASC_NODE": 44.4476, "ARG_OF_PERICENTER": 92.5129, "MEAN_ANOMALY": 267.6194, "EPHEMERIS_TYPE": 0, "CLASSIFICATION_TYPE": "U", "NORAD_CAT_ID": 49260, "ELEMENT_SET_NO": 999, "REV_AT_EPOCH": 22231, "BSTAR": 0.0001315333, "MEAN_MOTION_DOT": 5.47e-06, "MEAN_MOTION_DDOT": 0}, "tle": {"line1": "1 49260U 21088A   25336.18434516  .00000547  00000+0  13153-3 0  9992", "line2": "2 49260  98.2105  44.4476 0001087  92.5129 267.6194 14.57112183222319"}}, "geometry": {"type": "Point", "coordinates": [49.832169523009796, -30.693427600757225]}}]}